satname,norad_id,inclination_deg,eccentricity,mean_motion_rev_per_day,perigee_km,apogee_km,l1,l2
STARLINK-1008,44714,53.1515,0.0002706,15.4945873,416.46928491522885,420.14752116735417,1 44714U 19074B   26162.95870690  .00065918  00000+0  11770-2 0  9998,2 44714  53.1515  93.7521 0002706 110.2571 249.8730 15.49458730363406
STARLINK-1012,44718,53.1554,0.0002362,15.49744387,415.868083315625,419.0783295771507,1 44718U 19074F   26162.95592103  .00056072  00000+0  99364-3 0  9999,2 44718  53.1554  94.0444 0002362 110.2536 249.8728 15.49744387363391
STARLINK-1017,44723,53.0478,0.000517,15.31655078,467.3329700032,474.41484728273736,1 44723U 19074L   26162.13785863  .00039542  00000+0  12806-2 0  9990,2 44723  53.0478  97.6957 0005170  49.6642 310.4809 15.31655078363251
STARLINK-1020,44725,53.1556,0.000328,15.54960202,400.0443467668865,404.4922926566187,1 44725U 19074N   26162.57874329  .00066744  00000+0  97809-3 0  9997,2 44725  53.1556 119.7650 0003280  81.7220 278.4164 15.54960202362985
STARLINK-1036,44741,53.0416,0.0002767,15.69536877,358.3577037218938,362.0867117074431,1 44741U 19074AE  26162.03852296  .00051508  00000+0  43034-3 0  9998,2 44741  53.0416  91.0842 0002767  24.2046 335.9100 15.69536877363331
STARLINK-1039,44744,53.0561,0.000406,15.28849367,476.4666852502123,482.03488413138075,1 44744U 19074AH  26162.63119270  .00036115  00000+0  12772-2 0  9996,2 44744  53.0561 140.8633 0004060  50.7244 309.4114 15.28849367362693
STARLINK-1042,44747,53.0428,0.0002741,15.54364538,402.14148438863776,405.8594521487421,1 44747U 19074AL  26162.85453192  .00022868  00000+0  34909-3 0  9994,2 44747  53.0428   1.3938 0002741 104.6748 255.4566 15.54364538364693
STARLINK-1043,44748,53.0478,0.000103,15.6277718,378.94308253406416,380.3351844175595,1 44748U 19074AM  26162.08710311  .00037165  00000+0  40948-3 0  9995,2 44748  53.0478 101.2619 0001030  89.2286 270.8845 15.62777180363207
STARLINK-1046,44751,53.0459,0.0007209,15.55186662,396.7225605757967,406.49759991609426,1 44751U 19074AQ  26162.58628847  .00066917  00000+0  97162-3 0  9993,2 44751  53.0459 120.6222 0007209  69.1804 290.9978 15.55186662362976
STARLINK-1047,44752,53.0699,0.0003682,15.34620243,459.53015350903024,464.56726626579166,1 44752U 19074AR  26162.92593979  .00008483  00000+0  26010-3 0  9997,2 44752  53.0699  65.0814 0003682 118.3836 241.7537 15.34620243363808
STARLINK-1048,44753,53.0441,0.000651,15.67729325,361.01060766665887,369.79069368783985,1 44753U 19074AS  26162.92786133  .00050523  00000+0  45431-3 0  9994,2 44753  53.0441  68.7512 0006510  70.4668 289.7050 15.67729325363723
STARLINK-1063,44768,53.154,0.0002465,15.4937979,416.8638703478837,420.2146317396482,1 44768U 19074BH  26162.97156510  .00061138  00000+0  10959-2 0  9995,2 44768  53.1540 134.7198 0002465  67.9117 292.2153 15.49379790362841
STARLINK-1067,44771,53.0423,0.0001883,15.7726138,336.9391646220083,339.4685385867233,1 44771U 19074BL  26162.13534530  .00089945  00000+0  53491-3 0  9994,2 44771  53.0423 104.2313 0001883 116.6554 243.4659 15.77261380363166
STARLINK-1068,44772,53.0419,0.0002049,15.75948751,340.5558124613335,343.3096970468314,1 44772U 19074BM  26162.97139857  .00073649  00000+0  46571-3 0  9995,2 44772  53.0419  73.7919 0002049 149.1699 210.9441 15.75948751363654
STARLINK-1114,44927,53.0403,0.0004665,15.65586403,368.4040690931233,374.7015296759482,1 44927U 20001P   26162.88641015  .00038923  00000+0  38349-3 0  9993,2 44927  53.0403 231.5567 0004665  10.0845 350.0262 15.65586403354789
STARLINK-1123,44930,53.1437,0.0006573,15.58737569,386.86013559276216,395.7592502152538,1 44930U 20001S   26162.81549852  .00075183  00000+0  95502-3 0  9999,2 44930  53.1437 259.1450 0006573 324.9638  35.0941 15.58737569354401
STARLINK-1094,44941,53.1525,0.0007017,15.54770309,398.06219715295447,407.5785927610377,1 44941U 20001AD  26162.91234236  .00036815  00000+0  54810-3 0  9995,2 44941  53.1525 233.8073 0007017 349.2853  10.8008 15.54770309354774
STARLINK-1122,44949,53.155,0.000637,15.54803724,398.4038315259586,407.0426474710803,1 44949U 20001AM  26162.47382766  .00058360  00000+0  86144-3 0  9990,2 44949  53.1550 236.5357 0006370 346.1627  13.9209 15.54803724354697
STARLINK-1080,44961,53.0442,0.0002977,15.67988071,362.6514306426452,366.66609123870876,1 44961U 20001AZ  26162.37843986  .00041998  00000+0  37524-3 0  9996,2 44961  53.0442 194.3703 0002977  38.8487 321.2742 15.67988071355268
STARLINK-1090,44968,53.1484,0.0005285,15.51011065,410.183290707947,417.36233938244914,1 44968U 20001BG  26162.79147546  .00058854  00000+0  99613-3 0  9994,2 44968  53.1484 222.8325 0005285 355.8032   4.2933 15.51011065354916
STARLINK-1132,45044,53.1492,0.0004166,15.56204459,395.8304631091678,401.4768850988312,1 45044U 20006A   26162.94652682  .00072821  00000+0  10179-2 0  9993,2 45044  53.1492 162.9771 0004166  35.0499 325.0787 15.56204459351544
STARLINK-1131,45047,53.1558,0.0005864,15.52792962,404.5960857678783,412.55554255632705,1 45047U 20006D   26162.39029161  .00052527  00000+0  83551-3 0  9991,2 45047  53.1558 198.5882 0005864  11.0897 349.0242 15.52792962350997
STARLINK-1134,45048,53.0237,0.0007861,15.59261894,384.47178739650553,395.11232545902203,1 45048U 20006E   26162.67820731  .00135613  00000+0  16704-2 0  9998,2 45048  53.0237 146.8287 0007861  75.3337 284.8546 15.59261894351724
STARLINK-1156,45054,53.1577,0.0003771,15.35351878,457.29690545370613,462.45413449627085,1 45054U 20006L   26162.38080977  .00024423  00000+0  70977-3 0  9992,2 45054  53.1577 204.6769 0003771   3.1152 356.9874 15.35351878350907
STARLINK-1166,45060,53.044,0.0006191,15.60148302,383.03988184947593,391.4167571881044,1 45060U 20006S   26162.93691247  .00071405  00000+0  86048-3 0  9996,2 45060  53.0440 178.5621 0006191  21.6516 338.4757 15.60148302351300
STARLINK-1169,45061,53.1545,0.0005913,15.38721182,445.85243062569225,453.9272551701024,1 45061U 20006T   26162.40730653  .00025430  00000+0  66246-3 0  9999,2 45061  53.1545 203.0573 0005913 342.3125  17.7673 15.38721182350938
STARLINK-1171,45062,53.0382,0.0003439,15.74820047,342.83117123828833,347.4554434336742,1 45062U 20006U   26162.21366293  .00059725  00000+0  39806-3 0  9990,2 45062  53.0382 147.6149 0003439  17.4185 342.6951 15.74820047351677
STARLINK-1133,45064,53.155,0.0005736,15.35279704,456.167416190533,464.0122300019884,1 45064U 20006W   26162.35207080  .00036722  00000+0  10621-2 0  9990,2 45064  53.1550 181.5955 0005736  14.5715 345.5452 15.35279704351233
STARLINK-1167,45071,53.1553,0.0004119,15.37765206,449.9057537696581,455.53301325839766,1 45071U 20006AD  26162.34897205  .00033932  00000+0  90751-3 0  9994,2 45071  53.1553 180.6151 0004119 349.1148  10.9766 15.37765206351244
STARLINK-1168,45072,53.1557,0.0005028,15.35476369,456.0679468566914,462.9438805707223,1 45072U 20006AE  26162.33139845  .00035760  00000+0  10284-2 0  9996,2 45072  53.1557 181.8857 0005028  16.9436 343.1734 15.35476369351225
STARLINK-1172,45074,53.1541,0.0004696,15.38749605,446.59935815978406,453.0121620000509,1 45074U 20006AG  26162.36928334  .00036503  00000+0  94442-3 0  9995,2 45074  53.1541 179.8303 0004696 356.2879   3.8089 15.38749605351259
STARLINK-1153,45080,53.1555,0.0005723,15.37925536,448.335599601588,456.15365441185986,1 45080U 20006AN  26162.33215045  .00038956  00000+0  10341-2 0  9996,2 45080  53.1555 180.6085 0005723 341.5197  18.5598 15.37925536351245
STARLINK-1151,45081,53.0466,0.0001599,15.87720346,307.6066214543971,309.74506420153466,1 45081U 20006AP  26163.00003472  .00123924  00000+0  44912-3 0  9993,2 45081  53.0466 131.9074 0001599 118.6138  82.7164 15.87720346  6020
STARLINK-1185,45087,53.1574,0.0006028,15.46330254,423.3697651869352,431.5746076220639,1 45087U 20006AV  26162.25977413  .00045248  00000+0  90537-3 0  9996,2 45087  53.1574 160.8582 0006028  26.1515 333.9796 15.46330254351515
STARLINK-1183,45088,53.156,0.0005536,15.35262637,456.3548314272757,463.92617227732626,1 45088U 20006AW  26162.31153249  .00028228  00000+0  82038-3 0  9993,2 45088  53.1560 166.5991 0005536  31.6282 328.5053 15.35262637351437
STARLINK-1152,45096,53.0317,0.0004317,15.49339967,415.72153936373525,421.5898901936753,1 45096U 20006BE  26162.58663964  .00064252  00000+0  11522-2 0  9997,2 45096  53.0317 119.8448 0004317  84.6005 275.5494 15.49339967352099
STARLINK-1184,45098,53.0499,0.0005131,15.14429413,519.1705319130324,526.2521824971973,1 45098U 20006BG  26162.37026337  .00016994  00000+0  92809-3 0  9991,2 45098  53.0499 180.9153 0005131  42.6129 317.5261 15.14429413351210
STARLINK-1193,45100,53.0444,0.0004695,15.68221902,360.8230563436482,367.15391217336673,1 45100U 20006BJ  26162.15035156  .00047554  00000+0  41978-3 0  9997,2 45100  53.0444 133.3072 0004695 358.0581   2.0416 15.68221902351867
STARLINK-1143,45179,53.0325,0.000917,15.9115489,292.92697234656407,305.1729332179666,1 45179U 20012B   26163.00003472  .00244999  33335-4  76033-3 0  9995,2 45179  53.0325 219.5296 0009170   5.7965 317.1956 15.91154890  6022
STARLINK-1202,45183,53.1562,0.0001485,15.35095699,459.6206992962361,461.6518149536032,1 45183U 20012F   26162.71308415  .00044936  00000+0  13040-2 0  9997,2 45183  53.1562 321.4839 0001485 234.3361 125.7503 15.35095699349365
STARLINK-1216,45185,53.1575,0.0001549,15.35409184,458.646193933615,460.7645575016131,1 45185U 20012H   26162.75651926  .00046939  00000+0  13477-2 0  9990,2 45185  53.1575 321.1301 0001549 227.9990 132.0881 15.35409184349312
STARLINK-1225,45187,53.1581,0.0001468,15.35448303,458.5854574007808,460.59301382355625,1 45187U 20012K   26162.75517492  .00044648  00000+0  12813-2 0  9999,2 45187  53.1581 321.5982 0001468 241.9039 118.1816 15.35448303349353
STARLINK-1230,45189,53.1571,0.000149,15.35281337,459.06607904053817,461.1038691888243,1 45189U 20012M   26162.76657157  .00054349  00000+0  15636-2 0  9990,2 45189  53.1571 321.6195 0001490 240.1922 119.8933 15.35281337346580
